*******************************************************************************
Ephemeris / WWW_USER Tue Mar 11 05:42:37 2025 Pasadena, USA      / Horizons    
*******************************************************************************
Target body name: Hale-Bopp (C/1995 O1)           {source: JPL#226}
Center body name: Earth (399)                     {source: DE441}
Center-site name: Gemini South Obs., Cerro Pachon
*******************************************************************************
Start time      : A.D. 2018-Sep-18 22:45:00.0000 UT      
Stop  time      : A.D. 2018-Sep-19 10:28:00.0000 UT      
Step-size       : 1 minutes
*******************************************************************************
Target pole/equ : undefined
Target radii    : 30. km                                                       
Center geodetic : 289.2634, -30.2406227, 2.71233  {E-lon(deg),Lat(deg),Alt(km)}
Center cylindric: 289.2634,5517.21435,-3194.81213 {E-lon(deg),Dxy(km),Dz(km)}
Center pole/equ : ITRF93                          {East-longitude positive}
Center radii    : 6378.137, 6378.137, 6356.752 km {Equator_a, b, pole_c}       
Target primary  : Sun
Vis. interferer : MOON (R_eq= 1737.400) km        {source: DE441}
Rel. light bend : Sun                             {source: DE441}
Rel. lght bnd GM: 1.3271E+11 km^3/s^2                                          
Small-body perts: Yes                             {source: SB441-N16}
Atmos refraction: NO (AIRLESS)
RA format       : HMS
Time format     : CAL 
Calendar mode   : Mixed Julian/Gregorian
RTS-only print  : NO       
EOP file        : eop.250310.p250606                                           
EOP coverage    : DATA-BASED 1962-JAN-20 TO 2025-MAR-10. PREDICTS-> 2025-JUN-05
Units conversion: 1 au= 149597870.700 km, c= 299792.458 km/s, 1 day= 86400.0 s 
Table cut-offs 1: Elevation (-90.0deg=NO ),Airmass (>38.000=NO), Daylight (YES)
Table cut-offs 2: Solar elongation (  0.0,180.0=NO ),Local Hour Angle( 0.0=NO )
Table cut-offs 3: RA/DEC angular rate (     0.0=NO )                           
*******************************************************************************
Initial IAU76/J2000 heliocentric ecliptic osculating elements (au, days, deg.):
  EPOCH=  2459837.5 ! 2022-Sep-15.0000000 (TDB)    RMSW= n.a.                  
   EC= .9949810027633206   QR= .890537663547794    TP= 2450537.1349071441      
   OM= 282.7334213961641   W= 130.4146670659176    IN= 89.28759424740302       
  Equivalent ICRF heliocentric cartesian coordinates (au, au/d):
   X= 3.907631452214869E+00  Y=-1.373895334060347E+00  Z=-4.624358508575312E+01
  VX= 3.778244409519935E-04 VY=-5.803173067116371E-04 VZ=-3.255716412104052E-03
Comet physical (GM= km^3/s^2; RAD= km):                                        
   GM= n.a.                RAD= 30.                                            
   M1=  4.8      M2=  n.a.     k1=  4.     k2= n.a.     PHCOF= n.a.            
*******************************************************************************
 Date__(UT)__HR:MN     R.A._________(ICRF)_________DEC
******************************************************
$$SOE
 2018-Sep-19 09:05     23 15 45.682914 -86 42 23.29078
 2018-Sep-19 09:06     23 15 45.618117 -86 42 23.28286
 2018-Sep-19 09:07     23 15 45.553324 -86 42 23.27493
 2018-Sep-19 09:08     23 15 45.488535 -86 42 23.26700
 2018-Sep-19 09:09     23 15 45.423750 -86 42 23.25907
 2018-Sep-19 09:10     23 15 45.358969 -86 42 23.25114
 2018-Sep-19 09:11     23 15 45.294192 -86 42 23.24320
 2018-Sep-19 09:12     23 15 45.229420 -86 42 23.23527
 2018-Sep-19 09:13     23 15 45.164652 -86 42 23.22733
 2018-Sep-19 09:14     23 15 45.099888 -86 42 23.21939
 2018-Sep-19 09:15     23 15 45.035128 -86 42 23.21145
 2018-Sep-19 09:16     23 15 44.970372 -86 42 23.20351
 2018-Sep-19 09:17 A   23 15 44.905621 -86 42 23.19556
 2018-Sep-19 09:18 A   23 15 44.840874 -86 42 23.18762
 2018-Sep-19 09:19 A   23 15 44.776131 -86 42 23.17967
 2018-Sep-19 09:20 A   23 15 44.711392 -86 42 23.17172
 2018-Sep-19 09:21 A   23 15 44.646657 -86 42 23.16377
 2018-Sep-19 09:22 A   23 15 44.581927 -86 42 23.15582
 2018-Sep-19 09:23 A   23 15 44.517201 -86 42 23.14786
 2018-Sep-19 09:24 A   23 15 44.452479 -86 42 23.13990
 2018-Sep-19 09:25 A   23 15 44.387761 -86 42 23.13195
 2018-Sep-19 09:26 A   23 15 44.323048 -86 42 23.12399
 2018-Sep-19 09:27 A   23 15 44.258339 -86 42 23.11603
 2018-Sep-19 09:28 A   23 15 44.193634 -86 42 23.10806
 2018-Sep-19 09:29 A   23 15 44.128933 -86 42 23.10010
 2018-Sep-19 09:30 A   23 15 44.064236 -86 42 23.09213
 2018-Sep-19 09:31 A   23 15 43.999544 -86 42 23.08417
 2018-Sep-19 09:32 A   23 15 43.934856 -86 42 23.07620
 2018-Sep-19 09:33 A   23 15 43.870173 -86 42 23.06823
 2018-Sep-19 09:34 A   23 15 43.805493 -86 42 23.06026
 2018-Sep-19 09:35 A   23 15 43.740818 -86 42 23.05228
 2018-Sep-19 09:36 A   23 15 43.676147 -86 42 23.04431
 2018-Sep-19 09:37 A   23 15 43.611480 -86 42 23.03633
 2018-Sep-19 09:38 A   23 15 43.546818 -86 42 23.02836
 2018-Sep-19 09:39 A   23 15 43.482160 -86 42 23.02038
 2018-Sep-19 09:40 A   23 15 43.417506 -86 42 23.01240
 2018-Sep-19 09:41 A   23 15 43.352857 -86 42 23.00442
 2018-Sep-19 09:42 A   23 15 43.288211 -86 42 22.99643
 2018-Sep-19 09:43 A   23 15 43.223570 -86 42 22.98845
 2018-Sep-19 09:44 A   23 15 43.158934 -86 42 22.98046
 2018-Sep-19 09:45 N   23 15 43.094301 -86 42 22.97248
 2018-Sep-19 09:46 N   23 15 43.029673 -86 42 22.96449
 2018-Sep-19 09:47 N   23 15 42.965049 -86 42 22.95650
 2018-Sep-19 09:48 N   23 15 42.900430 -86 42 22.94851
 2018-Sep-19 09:49 N   23 15 42.835814 -86 42 22.94052
 2018-Sep-19 09:50 N   23 15 42.771203 -86 42 22.93253
 2018-Sep-19 09:51 N   23 15 42.706597 -86 42 22.92453
 2018-Sep-19 09:52 N   23 15 42.641994 -86 42 22.91654
 2018-Sep-19 09:53 N   23 15 42.577396 -86 42 22.90854
 2018-Sep-19 09:54 N   23 15 42.512802 -86 42 22.90054
 2018-Sep-19 09:55 N   23 15 42.448213 -86 42 22.89254
 2018-Sep-19 09:56 N   23 15 42.383628 -86 42 22.88454
 2018-Sep-19 09:57 N   23 15 42.319047 -86 42 22.87654
 2018-Sep-19 09:58 N   23 15 42.254470 -86 42 22.86854
 2018-Sep-19 09:59 N   23 15 42.189898 -86 42 22.86054
 2018-Sep-19 10:00 N   23 15 42.125330 -86 42 22.85253
 2018-Sep-19 10:01 N   23 15 42.060766 -86 42 22.84453
 2018-Sep-19 10:02 N   23 15 41.996207 -86 42 22.83652
 2018-Sep-19 10:03 N   23 15 41.931651 -86 42 22.82851
 2018-Sep-19 10:04 N   23 15 41.867101 -86 42 22.82050
 2018-Sep-19 10:05 N   23 15 41.802554 -86 42 22.81249
 2018-Sep-19 10:06 N   23 15 41.738012 -86 42 22.80448
 2018-Sep-19 10:07 N   23 15 41.673474 -86 42 22.79647
 2018-Sep-19 10:08 N   23 15 41.608941 -86 42 22.78846
 2018-Sep-19 10:09 N   23 15 41.544411 -86 42 22.78045
 2018-Sep-19 10:10 N   23 15 41.479886 -86 42 22.77243
 2018-Sep-19 10:11 N   23 15 41.415366 -86 42 22.76442
 2018-Sep-19 10:12 N   23 15 41.350849 -86 42 22.75640
 2018-Sep-19 10:13 C   23 15 41.286337 -86 42 22.74839
 2018-Sep-19 10:14 C   23 15 41.221829 -86 42 22.74037
 2018-Sep-19 10:15 C   23 15 41.157326 -86 42 22.73235
 2018-Sep-19 10:16 C   23 15 41.092827 -86 42 22.72433
 2018-Sep-19 10:17 C   23 15 41.028332 -86 42 22.71631
 2018-Sep-19 10:18 C   23 15 40.963841 -86 42 22.70829
 2018-Sep-19 10:19 C   23 15 40.899355 -86 42 22.70027
 2018-Sep-19 10:20 C   23 15 40.834873 -86 42 22.69225
 2018-Sep-19 10:21 C   23 15 40.770395 -86 42 22.68422
 2018-Sep-19 10:22 C   23 15 40.705922 -86 42 22.67620
 2018-Sep-19 10:23 C   23 15 40.641453 -86 42 22.66817
 2018-Sep-19 10:24 C   23 15 40.576988 -86 42 22.66015
 2018-Sep-19 10:25 C   23 15 40.512528 -86 42 22.65212
 2018-Sep-19 10:26 C   23 15 40.448071 -86 42 22.64410
 2018-Sep-19 10:27 C   23 15 40.383620 -86 42 22.63607
 2018-Sep-19 10:28 C   23 15 40.319172 -86 42 22.62804
